[{"OBJECT_NAME":"STARLINK-2411","OBJECT_ID":"2021-018AR","EPOCH":"2026-03-28T11:21:44.734752","MEAN_MOTION":15.30199158,"ECCENTRICITY":0.0001272,"INCLINATION":53.1604,"RA_OF_ASC_NODE":157.7441,"ARG_OF_PERICENTER":73.6275,"MEAN_ANOMALY":286.4865,"EPHEMERIS_TYPE":0,"CLASSIFICATION_TYPE":"U","NORAD_CAT_ID":47826,"ELEMENT_SET_NO":999,"REV_AT_EPOCH":27957,"BSTAR":-6.6319e-5,"MEAN_MOTION_DOT":-2.323e-5,"MEAN_MOTION_DDOT":0},{"OBJECT_NAME":"STARLINK-2413","OBJECT_ID":"2021-018AS","EPOCH":"2026-03-28T12:05:43.973088","MEAN_MOTION":15.29356488,"ECCENTRICITY":0.0001268,"INCLINATION":53.1568,"RA_OF_ASC_NODE":154.8643,"ARG_OF_PERICENTER":82.4063,"MEAN_ANOMALY":277.7082,"EPHEMERIS_TYPE":0,"CLASSIFICATION_TYPE":"U","NORAD_CAT_ID":47827,"ELEMENT_SET_NO":999,"REV_AT_EPOCH":27966,"BSTAR":-0.00012926,"MEAN_MOTION_DOT":-4.084e-5,"MEAN_MOTION_DDOT":0},{"OBJECT_NAME":"STARLINK-2415","OBJECT_ID":"2021-018AT","EPOCH":"2026-03-28T11:41:24.060192","MEAN_MOTION":15.30209252,"ECCENTRICITY":0.0001252,"INCLINATION":53.1608,"RA_OF_ASC_NODE":167.9713,"ARG_OF_PERICENTER":89.416,"MEAN_ANOMALY":270.6984,"EPHEMERIS_TYPE":0,"CLASSIFICATION_TYPE":"U","NORAD_CAT_ID":47828,"ELEMENT_SET_NO":999,"REV_AT_EPOCH":27943,"BSTAR":8.3892e-5,"MEAN_MOTION_DOT":2.127e-5,"MEAN_MOTION_DDOT":0},{"OBJECT_NAME":"STARLINK-2419","OBJECT_ID":"2021-018AV","EPOCH":"2026-03-28T11:18:44.510400","MEAN_MOTION":15.301987,"ECCENTRICITY":0.0001602,"INCLINATION":53.161,"RA_OF_ASC_NODE":168.3981,"ARG_OF_PERICENTER":51.416,"MEAN_ANOMALY":308.6985,"EPHEMERIS_TYPE":0,"CLASSIFICATION_TYPE":"U","NORAD_CAT_ID":47830,"ELEMENT_SET_NO":999,"REV_AT_EPOCH":27941,"BSTAR":7.2179e-5,"MEAN_MOTION_DOT":1.779e-5,"MEAN_MOTION_DDOT":0},{"OBJECT_NAME":"STARLINK-2420","OBJECT_ID":"2021-018AW","EPOCH":"2026-03-28T10:43:43.252896","MEAN_MOTION":15.0640086,"ECCENTRICITY":0.0001213,"INCLINATION":53.055,"RA_OF_ASC_NODE":152.4158,"ARG_OF_PERICENTER":91.1093,"MEAN_ANOMALY":269.0035,"EPHEMERIS_TYPE":0,"CLASSIFICATION_TYPE":"U","NORAD_CAT_ID":47831,"ELEMENT_SET_NO":999,"REV_AT_EPOCH":27968,"BSTAR":5.376e-5,"MEAN_MOTION_DOT":5.19e-6,"MEAN_MOTION_DDOT":0},{"OBJECT_NAME":"STARLINK-2422","OBJECT_ID":"2021-018AX","EPOCH":"2026-03-28T11:30:57.516768","MEAN_MOTION":15.30191019,"ECCENTRICITY":0.0001183,"INCLINATION":53.1595,"RA_OF_ASC_NODE":158.2137,"ARG_OF_PERICENTER":93.3559,"MEAN_ANOMALY":266.7578,"EPHEMERIS_TYPE":0,"CLASSIFICATION_TYPE":"U","NORAD_CAT_ID":47832,"ELEMENT_SET_NO":999,"REV_AT_EPOCH":27956,"BSTAR":-1.7019e-5,"MEAN_MOTION_DOT":-8.63e-6,"MEAN_MOTION_DDOT":0},{"OBJECT_NAME":"STARLINK-2423","OBJECT_ID":"2021-018AY","EPOCH":"2026-03-28T12:00:00.998784","MEAN_MOTION":15.10241583,"ECCENTRICITY":0.0001472,"INCLINATION":53.0772,"RA_OF_ASC_NODE":167.098,"ARG_OF_PERICENTER":111.2378,"MEAN_ANOMALY":318.0334,"EPHEMERIS_TYPE":0,"CLASSIFICATION_TYPE":"U","NORAD_CAT_ID":47833,"ELEMENT_SET_NO":999,"REV_AT_EPOCH":567,"BSTAR":-0.0009163,"MEAN_MOTION_DOT":-0.00015417,"MEAN_MOTION_DDOT":0},{"OBJECT_NAME":"STARLINK-2424","OBJECT_ID":"2021-018AZ","EPOCH":"2026-03-28T11:17:12.171264","MEAN_MOTION":15.30196025,"ECCENTRICITY":0.0001116,"INCLINATION":53.1603,"RA_OF_ASC_NODE":157.8,"ARG_OF_PERICENTER":87.7316,"MEAN_ANOMALY":272.3812,"EPHEMERIS_TYPE":0,"CLASSIFICATION_TYPE":"U","NORAD_CAT_ID":47834,"ELEMENT_SET_NO":999,"REV_AT_EPOCH":27962,"BSTAR":3.5234e-5,"MEAN_MOTION_DOT":6.84e-6,"MEAN_MOTION_DDOT":0},{"OBJECT_NAME":"STARLINK-2426","OBJECT_ID":"2021-018BB","EPOCH":"2026-03-28T11:26:17.509056","MEAN_MOTION":15.30194211,"ECCENTRICITY":0.0001366,"INCLINATION":53.1608,"RA_OF_ASC_NODE":157.7392,"ARG_OF_PERICENTER":75.2122,"MEAN_ANOMALY":284.903,"EPHEMERIS_TYPE":0,"CLASSIFICATION_TYPE":"U","NORAD_CAT_ID":47836,"ELEMENT_SET_NO":999,"REV_AT_EPOCH":27957,"BSTAR":-0.00015922,"MEAN_MOTION_DOT":-5.071e-5,"MEAN_MOTION_DDOT":0},{"OBJECT_NAME":"STARLINK-2427","OBJECT_ID":"2021-018BC","EPOCH":"2026-03-28T11:13:34.783680","MEAN_MOTION":15.063936,"ECCENTRICITY":0.0001507,"INCLINATION":53.0553,"RA_OF_ASC_NODE":147.3207,"ARG_OF_PERICENTER":91.5045,"MEAN_ANOMALY":268.6117,"EPHEMERIS_TYPE":0,"CLASSIFICATION_TYPE":"U","NORAD_CAT_ID":47837,"ELEMENT_SET_NO":999,"REV_AT_EPOCH":27971,"BSTAR":-0.00013498,"MEAN_MOTION_DOT":-2.291e-5,"MEAN_MOTION_DDOT":0},{"OBJECT_NAME":"STARLINK-2429","OBJECT_ID":"2021-018BD","EPOCH":"2026-03-28T11:38:31.808832","MEAN_MOTION":15.3018633,"ECCENTRICITY":0.0001271,"INCLINATION":53.1598,"RA_OF_ASC_NODE":158.1368,"ARG_OF_PERICENTER":87.8118,"MEAN_ANOMALY":272.3029,"EPHEMERIS_TYPE":0,"CLASSIFICATION_TYPE":"U","NORAD_CAT_ID":47838,"ELEMENT_SET_NO":999,"REV_AT_EPOCH":27956,"BSTAR":5.35e-6,"MEAN_MOTION_DOT":-2.01e-6,"MEAN_MOTION_DDOT":0},{"OBJECT_NAME":"STARLINK-2431","OBJECT_ID":"2021-018BE","EPOCH":"2026-03-28T12:42:44.460864","MEAN_MOTION":15.30199697,"ECCENTRICITY":0.0001003,"INCLINATION":53.1595,"RA_OF_ASC_NODE":129.405,"ARG_OF_PERICENTER":86.4715,"MEAN_ANOMALY":273.6401,"EPHEMERIS_TYPE":0,"CLASSIFICATION_TYPE":"U","NORAD_CAT_ID":47839,"ELEMENT_SET_NO":999,"REV_AT_EPOCH":27998,"BSTAR":1.5527e-5,"MEAN_MOTION_DOT":1.01e-6,"MEAN_MOTION_DDOT":0},{"OBJECT_NAME":"STARLINK-2432","OBJECT_ID":"2021-018BF","EPOCH":"2026-03-28T10:52:21.322848","MEAN_MOTION":15.06394015,"ECCENTRICITY":8.63e-5,"INCLINATION":53.0546,"RA_OF_ASC_NODE":147.3869,"ARG_OF_PERICENTER":93.3699,"MEAN_ANOMALY":266.7389,"EPHEMERIS_TYPE":0,"CLASSIFICATION_TYPE":"U","NORAD_CAT_ID":47840,"ELEMENT_SET_NO":999,"REV_AT_EPOCH":27970,"BSTAR":3.5318e-5,"MEAN_MOTION_DOT":2.45e-6,"MEAN_MOTION_DDOT":0},{"OBJECT_NAME":"STARLINK-2433","OBJECT_ID":"2021-018BG","EPOCH":"2026-03-28T10:47:01.686048","MEAN_MOTION":15.06402458,"ECCENTRICITY":0.0001294,"INCLINATION":53.0541,"RA_OF_ASC_NODE":147.3984,"ARG_OF_PERICENTER":91.8666,"MEAN_ANOMALY":268.2472,"EPHEMERIS_TYPE":0,"CLASSIFICATION_TYPE":"U","NORAD_CAT_ID":47841,"ELEMENT_SET_NO":999,"REV_AT_EPOCH":27970,"BSTAR":-6.4186e-5,"MEAN_MOTION_DOT":-1.237e-5,"MEAN_MOTION_DDOT":0},{"OBJECT_NAME":"STARLINK-2435","OBJECT_ID":"2021-018BJ","EPOCH":"2026-03-28T12:04:51.613824","MEAN_MOTION":15.29370763,"ECCENTRICITY":0.0001099,"INCLINATION":53.1586,"RA_OF_ASC_NODE":167.8717,"ARG_OF_PERICENTER":90.8016,"MEAN_ANOMALY":269.311,"EPHEMERIS_TYPE":0,"CLASSIFICATION_TYPE":"U","NORAD_CAT_ID":47843,"ELEMENT_SET_NO":999,"REV_AT_EPOCH":27944,"BSTAR":6.3889e-5,"MEAN_MOTION_DOT":1.489e-5,"MEAN_MOTION_DDOT":0},{"OBJECT_NAME":"STARLINK-2446","OBJECT_ID":"2021-018BK","EPOCH":"2026-03-28T12:21:26.282592","MEAN_MOTION":15.31030475,"ECCENTRICITY":0.0001181,"INCLINATION":53.1614,"RA_OF_ASC_NODE":158.3499,"ARG_OF_PERICENTER":87.766,"MEAN_ANOMALY":272.3476,"EPHEMERIS_TYPE":0,"CLASSIFICATION_TYPE":"U","NORAD_CAT_ID":47844,"ELEMENT_SET_NO":999,"REV_AT_EPOCH":27956,"BSTAR":-1.8859e-5,"MEAN_MOTION_DOT":-9.35e-6,"MEAN_MOTION_DDOT":0},{"OBJECT_NAME":"STARLINK-2453","OBJECT_ID":"2021-018BL","EPOCH":"2026-03-28T11:48:02.958624","MEAN_MOTION":15.06424981,"ECCENTRICITY":0.000162,"INCLINATION":53.0535,"RA_OF_ASC_NODE":167.2146,"ARG_OF_PERICENTER":87.3931,"MEAN_ANOMALY":272.7244,"EPHEMERIS_TYPE":0,"CLASSIFICATION_TYPE":"U","NORAD_CAT_ID":47845,"ELEMENT_SET_NO":999,"REV_AT_EPOCH":27943,"BSTAR":-0.00020707,"MEAN_MOTION_DOT":-3.367e-5,"MEAN_MOTION_DDOT":0}]
