STARLINK-2411           
1 47826U 21018AR  26087.47343443 -.00002323  00000+0 -66319-4 0  9994
2 47826  53.1604 157.7441 0001272  73.6275 286.4865 15.30199158279570
STARLINK-2413           
1 47827U 21018AS  26087.50398117 -.00004084  00000+0 -12926-3 0  9997
2 47827  53.1568 154.8643 0001268  82.4063 277.7082 15.29356488279663
STARLINK-2415           
1 47828U 21018AT  26087.48708403  .00002127  00000+0  83892-4 0  9993
2 47828  53.1608 167.9713 0001252  89.4160 270.6984 15.30209252279436
STARLINK-2419           
1 47830U 21018AV  26087.47134850  .00001779  00000+0  72179-4 0  9992
2 47830  53.1610 168.3981 0001602  51.4160 308.6985 15.30198700279418
STARLINK-2420           
1 47831U 21018AW  26087.44702839  .00000519  00000+0  53760-4 0  9994
2 47831  53.0550 152.4158 0001213  91.1093 269.0035 15.06400860279686
STARLINK-2422           
1 47832U 21018AX  26087.47983237 -.00000863  00000+0 -17019-4 0  9992
2 47832  53.1595 158.2137 0001183  93.3559 266.7578 15.30191019279568
STARLINK-2423           
1 47833U 21018AY  26087.50001156 -.00015417  00000+0 -91630-3 0  9999
2 47833  53.0772 167.0980 0001472 111.2378 318.0334 15.10241583  5679
STARLINK-2424           
1 47834U 21018AZ  26087.47027976  .00000684  00000+0  35234-4 0  9991
2 47834  53.1603 157.8000 0001116  87.7316 272.3812 15.30196025279621
STARLINK-2426           
1 47836U 21018BB  26087.47659154 -.00005071  00000+0 -15922-3 0  9990
2 47836  53.1608 157.7392 0001366  75.2122 284.9030 15.30194211279575
STARLINK-2427           
1 47837U 21018BC  26087.46776370 -.00002291  00000+0 -13498-3 0  9997
2 47837  53.0553 147.3207 0001507  91.5045 268.6117 15.06393600279713
STARLINK-2429           
1 47838U 21018BD  26087.48509038 -.00000201  00000+0  53500-5 0  9993
2 47838  53.1598 158.1368 0001271  87.8118 272.3029 15.30186330279563
STARLINK-2431           
1 47839U 21018BE  26087.52968126  .00000101  00000+0  15527-4 0  9990
2 47839  53.1595 129.4050 0001003  86.4715 273.6401 15.30199697279985
STARLINK-2432           
1 47840U 21018BF  26087.45302457  .00000245  00000+0  35318-4 0  9992
2 47840  53.0546 147.3869 0000863  93.3699 266.7389 15.06394015279702
STARLINK-2433           
1 47841U 21018BG  26087.44932507 -.00001237  00000+0 -64186-4 0  9996
2 47841  53.0541 147.3984 0001294  91.8666 268.2472 15.06402458279703
STARLINK-2435           
1 47843U 21018BJ  26087.50337516  .00001489  00000+0  63889-4 0  9990
2 47843  53.1586 167.8717 0001099  90.8016 269.3110 15.29370763279447
STARLINK-2446           
1 47844U 21018BK  26087.51488753 -.00000935  00000+0 -18859-4 0  9996
2 47844  53.1614 158.3499 0001181  87.7660 272.3476 15.31030475279562
STARLINK-2453           
1 47845U 21018BL  26087.49170091 -.00003367  00000+0 -20707-3 0  9993
2 47845  53.0535 167.2146 0001620  87.3931 272.7244 15.06424981279431
